[{"OBJECT_NAME":"STARLINK-34812","OBJECT_ID":"2025-232X","EPOCH":"2025-12-11T04:54:43.103520","MEAN_MOTION":15.30202137,"ECCENTRICITY":0.00016936,"INCLINATION":53.1603,"RA_OF_ASC_NODE":155.2273,"ARG_OF_PERICENTER":88.2297,"MEAN_ANOMALY":271.8897,"EPHEMERIS_TYPE":0,"CLASSIFICATION_TYPE":"U","NORAD_CAT_ID":66026,"ELEMENT_SET_NO":999,"REV_AT_EPOCH":987,"BSTAR":0.001877218,"MEAN_MOTION_DOT":0.0005566,"MEAN_MOTION_DDOT":0},{"OBJECT_NAME":"STARLINK-35341","OBJECT_ID":"2025-232Y","EPOCH":"2025-12-11T04:51:40.167936","MEAN_MOTION":15.30225535,"ECCENTRICITY":1.226e-5,"INCLINATION":53.1616,"RA_OF_ASC_NODE":155.2098,"ARG_OF_PERICENTER":106.5437,"MEAN_ANOMALY":253.5577,"EPHEMERIS_TYPE":0,"CLASSIFICATION_TYPE":"U","NORAD_CAT_ID":66027,"ELEMENT_SET_NO":999,"REV_AT_EPOCH":988,"BSTAR":0.0014710814,"MEAN_MOTION_DOT":0.000435,"MEAN_MOTION_DDOT":0},{"OBJECT_NAME":"STARLINK-35339","OBJECT_ID":"2025-232Z","EPOCH":"2025-12-11T04:33:26.385408","MEAN_MOTION":15.30220529,"ECCENTRICITY":0.00010914,"INCLINATION":53.1622,"RA_OF_ASC_NODE":155.1321,"ARG_OF_PERICENTER":81.8116,"MEAN_ANOMALY":278.3009,"EPHEMERIS_TYPE":0,"CLASSIFICATION_TYPE":"U","NORAD_CAT_ID":66028,"ELEMENT_SET_NO":999,"REV_AT_EPOCH":988,"BSTAR":0.00077891253,"MEAN_MOTION_DOT":0.00022795,"MEAN_MOTION_DDOT":0},{"OBJECT_NAME":"STARLINK-35399","OBJECT_ID":"2025-232AA","EPOCH":"2025-12-11T04:45:35.938368","MEAN_MOTION":15.30201913,"ECCENTRICITY":0.0001471,"INCLINATION":53.16,"RA_OF_ASC_NODE":155.1834,"ARG_OF_PERICENTER":67.7167,"MEAN_ANOMALY":292.399,"EPHEMERIS_TYPE":0,"CLASSIFICATION_TYPE":"U","NORAD_CAT_ID":66029,"ELEMENT_SET_NO":999,"REV_AT_EPOCH":988,"BSTAR":0.0018248336,"MEAN_MOTION_DOT":0.00054085,"MEAN_MOTION_DDOT":0},{"OBJECT_NAME":"STARLINK-35431","OBJECT_ID":"2025-232AB","EPOCH":"2025-12-11T03:02:27.502944","MEAN_MOTION":15.30186723,"ECCENTRICITY":0.00012079,"INCLINATION":53.1591,"RA_OF_ASC_NODE":155.446,"ARG_OF_PERICENTER":97.034,"MEAN_ANOMALY":263.0798,"EPHEMERIS_TYPE":0,"CLASSIFICATION_TYPE":"U","NORAD_CAT_ID":66030,"ELEMENT_SET_NO":999,"REV_AT_EPOCH":987,"BSTAR":0.0012606389,"MEAN_MOTION_DOT":0.00037149,"MEAN_MOTION_DDOT":0},{"OBJECT_NAME":"STARLINK-35326","OBJECT_ID":"2025-232AC","EPOCH":"2025-12-11T04:42:33.503040","MEAN_MOTION":15.30195778,"ECCENTRICITY":0.00013483,"INCLINATION":53.1593,"RA_OF_ASC_NODE":155.1645,"ARG_OF_PERICENTER":92.97,"MEAN_ANOMALY":267.1455,"EPHEMERIS_TYPE":0,"CLASSIFICATION_TYPE":"U","NORAD_CAT_ID":66031,"ELEMENT_SET_NO":999,"REV_AT_EPOCH":988,"BSTAR":0.0012173211,"MEAN_MOTION_DOT":0.00035864,"MEAN_MOTION_DDOT":0},{"OBJECT_NAME":"STARLINK-35311","OBJECT_ID":"2025-232AD","EPOCH":"2025-12-10T23:45:12.061152","MEAN_MOTION":15.30247902,"ECCENTRICITY":0.00011484,"INCLINATION":53.1588,"RA_OF_ASC_NODE":156.0087,"ARG_OF_PERICENTER":112.1384,"MEAN_ANOMALY":247.9739,"EPHEMERIS_TYPE":0,"CLASSIFICATION_TYPE":"U","NORAD_CAT_ID":66032,"ELEMENT_SET_NO":999,"REV_AT_EPOCH":985,"BSTAR":0.0016998082,"MEAN_MOTION_DOT":0.00050401,"MEAN_MOTION_DDOT":0},{"OBJECT_NAME":"STARLINK-35552","OBJECT_ID":"2025-235A","EPOCH":"2025-12-11T03:54:38.967264","MEAN_MOTION":15.39633079,"ECCENTRICITY":0.0001187,"INCLINATION":53.1616,"RA_OF_ASC_NODE":294.5785,"ARG_OF_PERICENTER":81.3745,"MEAN_ANOMALY":278.7395,"EPHEMERIS_TYPE":0,"CLASSIFICATION_TYPE":"U","NORAD_CAT_ID":66058,"ELEMENT_SET_NO":999,"REV_AT_EPOCH":939,"BSTAR":0.00096483817,"MEAN_MOTION_DOT":0.00038404,"MEAN_MOTION_DDOT":0},{"OBJECT_NAME":"STARLINK-35560","OBJECT_ID":"2025-235B","EPOCH":"2025-12-11T08:00:01.999872","MEAN_MOTION":15.3012542,"ECCENTRICITY":0.00020463,"INCLINATION":53.1606,"RA_OF_ASC_NODE":295.6778,"ARG_OF_PERICENTER":90.3946,"MEAN_ANOMALY":271.5823,"EPHEMERIS_TYPE":0,"CLASSIFICATION_TYPE":"U","NORAD_CAT_ID":66059,"ELEMENT_SET_NO":999,"REV_AT_EPOCH":593,"BSTAR":0.0033539084,"MEAN_MOTION_DOT":0.00100089,"MEAN_MOTION_DDOT":0},{"OBJECT_NAME":"STARLINK-35558","OBJECT_ID":"2025-235C","EPOCH":"2025-12-11T08:00:01.999872","MEAN_MOTION":15.30134935,"ECCENTRICITY":0.00013623,"INCLINATION":53.1589,"RA_OF_ASC_NODE":295.9658,"ARG_OF_PERICENTER":80.5664,"MEAN_ANOMALY":136.0525,"EPHEMERIS_TYPE":0,"CLASSIFICATION_TYPE":"U","NORAD_CAT_ID":66060,"ELEMENT_SET_NO":999,"REV_AT_EPOCH":593,"BSTAR":0.0036654029,"MEAN_MOTION_DOT":0.0010959,"MEAN_MOTION_DDOT":0},{"OBJECT_NAME":"STARLINK-35566","OBJECT_ID":"2025-235D","EPOCH":"2025-12-11T08:00:01.999872","MEAN_MOTION":15.32903374,"ECCENTRICITY":7.284e-5,"INCLINATION":53.1599,"RA_OF_ASC_NODE":295.4765,"ARG_OF_PERICENTER":89.9994,"MEAN_ANOMALY":13.5795,"EPHEMERIS_TYPE":0,"CLASSIFICATION_TYPE":"U","NORAD_CAT_ID":66061,"ELEMENT_SET_NO":999,"REV_AT_EPOCH":593,"BSTAR":-0.062242537,"MEAN_MOTION_DOT":-0.01804137,"MEAN_MOTION_DDOT":0},{"OBJECT_NAME":"STARLINK-35421","OBJECT_ID":"2025-235E","EPOCH":"2025-12-11T08:00:01.999872","MEAN_MOTION":15.30128987,"ECCENTRICITY":0.00015178,"INCLINATION":53.1607,"RA_OF_ASC_NODE":295.8283,"ARG_OF_PERICENTER":85.3423,"MEAN_ANOMALY":201.0725,"EPHEMERIS_TYPE":0,"CLASSIFICATION_TYPE":"U","NORAD_CAT_ID":66062,"ELEMENT_SET_NO":999,"REV_AT_EPOCH":593,"BSTAR":0.004370875,"MEAN_MOTION_DOT":0.00131108,"MEAN_MOTION_DDOT":0},{"OBJECT_NAME":"STARLINK-35562","OBJECT_ID":"2025-235F","EPOCH":"2025-12-11T05:41:34.753056","MEAN_MOTION":15.30223063,"ECCENTRICITY":0.00012493,"INCLINATION":53.1607,"RA_OF_ASC_NODE":296.4988,"ARG_OF_PERICENTER":86.1699,"MEAN_ANOMALY":273.9445,"EPHEMERIS_TYPE":0,"CLASSIFICATION_TYPE":"U","NORAD_CAT_ID":66063,"ELEMENT_SET_NO":999,"REV_AT_EPOCH":937,"BSTAR":0.0014997703,"MEAN_MOTION_DOT":0.00044357,"MEAN_MOTION_DDOT":0},{"OBJECT_NAME":"STARLINK-35542","OBJECT_ID":"2025-235G","EPOCH":"2025-12-11T06:55:30.087552","MEAN_MOTION":15.38937416,"ECCENTRICITY":0.00012276,"INCLINATION":53.1618,"RA_OF_ASC_NODE":296.1139,"ARG_OF_PERICENTER":54.8585,"MEAN_ANOMALY":305.2535,"EPHEMERIS_TYPE":0,"CLASSIFICATION_TYPE":"U","NORAD_CAT_ID":66064,"ELEMENT_SET_NO":999,"REV_AT_EPOCH":938,"BSTAR":-0.0068922236,"MEAN_MOTION_DOT":-0.00260941,"MEAN_MOTION_DDOT":0},{"OBJECT_NAME":"STARLINK-35375","OBJECT_ID":"2025-235H","EPOCH":"2025-12-11T08:00:01.999872","MEAN_MOTION":15.30128278,"ECCENTRICITY":0.00014151,"INCLINATION":53.1583,"RA_OF_ASC_NODE":296.0352,"ARG_OF_PERICENTER":105.26,"MEAN_ANOMALY":76.4828,"EPHEMERIS_TYPE":0,"CLASSIFICATION_TYPE":"U","NORAD_CAT_ID":66065,"ELEMENT_SET_NO":999,"REV_AT_EPOCH":593,"BSTAR":0.0029893368,"MEAN_MOTION_DOT":0.00089044,"MEAN_MOTION_DDOT":0},{"OBJECT_NAME":"STARLINK-35179","OBJECT_ID":"2025-235J","EPOCH":"2025-12-11T08:00:01.999872","MEAN_MOTION":15.30144571,"ECCENTRICITY":0.00012676,"INCLINATION":53.1599,"RA_OF_ASC_NODE":295.8965,"ARG_OF_PERICENTER":99.0065,"MEAN_ANOMALY":152.4912,"EPHEMERIS_TYPE":0,"CLASSIFICATION_TYPE":"U","NORAD_CAT_ID":66066,"ELEMENT_SET_NO":999,"REV_AT_EPOCH":593,"BSTAR":0.0042318894,"MEAN_MOTION_DOT":0.00126917,"MEAN_MOTION_DDOT":0}]
