STARLINK-34812          
1 66026U 25232X   25345.20466555  .00055660  00000+0  18772-2 0  9994
2 66026  53.1603 155.2273 0001693  88.2297 271.8897 15.30202137  9870
STARLINK-35341          
1 66027U 25232Y   25345.20254824  .00043500  00000+0  14711-2 0  9998
2 66027  53.1616 155.2098 0000122 106.5437 253.5577 15.30225535  9886
STARLINK-35339          
1 66028U 25232Z   25345.18988872  .00022795  00000+0  77891-3 0  9995
2 66028  53.1622 155.1321 0001091  81.8116 278.3009 15.30220529  9880
STARLINK-35399          
1 66029U 25232AA  25345.19833262  .00054085  00000+0  18248-2 0  9996
2 66029  53.1600 155.1834 0001471  67.7167 292.3990 15.30201913  9888
STARLINK-35431          
1 66030U 25232AB  25345.12670721  .00037149  00000+0  12606-2 0  9994
2 66030  53.1591 155.4460 0001207  97.0340 263.0798 15.30186723  9874
STARLINK-35326          
1 66031U 25232AC  25345.19622110  .00035864  00000+0  12173-2 0  9992
2 66031  53.1593 155.1645 0001348  92.9700 267.1455 15.30195778  9885
STARLINK-35311          
1 66032U 25232AD  25344.98972293  .00050401  00000+0  16998-2 0  9992
2 66032  53.1588 156.0087 0001148 112.1384 247.9739 15.30247902  9856
STARLINK-35552          
1 66058U 25235A   25345.16295101  .00038404  00000+0  96484-3 0  9998
2 66058  53.1616 294.5785 0001187  81.3745 278.7395 15.39633079  9392
STARLINK-35560          
1 66059U 25235B   25345.33335648  .00100089  00000+0  33539-2 0  9999
2 66059  53.1606 295.6778 0002046  90.3946 271.5823 15.30125420  5934
STARLINK-35558          
1 66060U 25235C   25345.33335648  .00109590  00000+0  36654-2 0  9998
2 66060  53.1589 295.9658 0001362  80.5664 136.0525 15.30134935  5939
STARLINK-35566          
1 66061U 25235D   25345.33335648 -.01804137  00000+0 -62243-1 0  9993
2 66061  53.1599 295.4765 0000728  89.9994  13.5795 15.32903374  5930
STARLINK-35421          
1 66062U 25235E   25345.33335648  .00131108  00000+0  43709-2 0  9999
2 66062  53.1607 295.8283 0001517  85.3423 201.0725 15.30128987  5938
STARLINK-35562          
1 66063U 25235F   25345.23720779  .00044357  00000+0  14998-2 0  9999
2 66063  53.1607 296.4988 0001249  86.1699 273.9445 15.30223063  9374
STARLINK-35542          
1 66064U 25235G   25345.28854268 -.00260941  00000+0 -68922-2 0  9993
2 66064  53.1618 296.1139 0001227  54.8585 305.2535 15.38937416  9386
STARLINK-35375          
1 66065U 25235H   25345.33335648  .00089044  00000+0  29893-2 0  9991
2 66065  53.1583 296.0352 0001415 105.2600  76.4828 15.30128278  5931
STARLINK-35179          
1 66066U 25235J   25345.33335648  .00126917  00000+0  42319-2 0  9991
2 66066  53.1599 295.8965 0001267  99.0065 152.4912 15.30144571  5939
